FLOCK 4G-18             
1 62680U 25009BZ  26068.19114186  .00011766  00000+0  44319-3 0  9995
2 62680  97.4054 150.5008 0004100 335.7331  24.3715 15.27241676121267
STARLINK-33630          
1 63477U 25070T   26068.53279217  .00040201  00000+0  14629-2 0  9999
2 63477  42.9982 257.0985 0001498 254.5646 105.5040 15.27568423 52996
